387P/Boattini,e,8.9176,259.3280,162.7773,4.799440,0.0937386,0.73602177,47.2271,01/22.0/2021,2000,g 15.0,4.0
# From MPEC 2020-HN5
388P/Gibbs,e,23.8640,37.0450,42.3809,5.245395,0.0820421,0.61795956,44.9963,01/22.0/2021,2000,g 13.0,4.0
# From MPC118845
389P/Siding Spring,e,160.0658,218.8503,249.2897,5.625970,0.0738598,0.70435965,28.7887,01/22.0/2021,2000,g 16.0,4.0
# From MPEC 2021-AJ0
390P/Gibbs,e,18.5604,152.2762,232.3474,5.801949,0.0705250,0.70703200,21.5626,01/22.0/2021,2000,g 12.0,4.0
# From MPEC 2021-AJ0
391P/Kowalski,e,21.2762,124.7298,186.8576,4.677672,0.0974225,0.12077340,101.2018,01/22.0/2021,2000,g  8.0,4.0
# From MPEC 2020-HN5
392P/LINEAR,e,4.9298,24.8816,71.9802,6.147788,0.0646585,0.68282124,19.1515,01/22.0/2021,2000,g 14.5,4.0
# From MPEC 2021-AJ0
393P/Spacewatch-Hill,e,16.7930,36.4198,328.1328,4.785294,0.0941545,0.12041479,42.8584,01/22.0/2021,2000,g 11.0,4.0
# From MPEC 2020-KB7
394P/PANSTARRS,e,8.5296,98.1247,54.5179,4.332476,0.1092949,0.36799973,45.7543,01/22.0/2021,2000,g 16.0,2.4
# From MPEC 2021-AJ0
395P/Catalina-NEAT,e,3.2789,223.7898,89.8072,6.531287,0.0590481,0.37766205,339.7341,01/22.0/2021,2000,g 10.0,4.0
# From MPEC 2020-KB7
396P/,e,5.4363,136.6623,8.6328,6.821126,0.0553248,0.41613249,28.3362,01/22.0/2021,2000,g 12.0,4.0
# From MPEC 2021-AJ0
397P/Lemmon,e,10.9283,8.2082,14.4149,3.826598,0.1316694,0.40495241,28.5299,01/22.0/2021,2000,g 12.0,4.0
# From MPEC 2021-AJ0
398P/Boattini,e,11.0154,127.4626,320.2379,3.128258,0.1781354,0.58261656,4.6765,01/22.0/2021,2000,g 15.5,4.0
# From MPEC 2021-AJ0
399P/PANSTARRS,e,13.3193,207.1465,214.2887,3.788658,0.1336521,0.44674705,343.8867,01/22.0/2021,2000,g 14.0,4.0
# From MPEC 2021-AJ0
400P/PANSTARRS,e,10.9291,176.3981,238.7835,3.558938,0.1467991,0.40899652,357.1976,01/22.0/2021,2000,g 15.5,2.8
# From MPEC 2021-AJ0
401P/McNaught,e,12.8040,359.8896,309.3026,5.771109,0.0710911,0.58011132,29.2833,01/22.0/2021,2000,g 12.5,4.0
# From MPEC 2021-AJ0
402P/LINEAR,e,30.8530,123.0882,326.7590,7.006812,0.0531402,0.43801061,342.6367,01/22.0/2021,2000,g  8.0,4.0
# From MPEC 2021-AJ0
403P/Catalina,e,12.3202,163.8149,277.6707,5.426419,0.0779712,0.50330812,9.9519,01/22.0/2021,2000,g 12.0,4.0
# From MPEC 2020-W26
404P/Bressi,e,9.8064,262.6072,158.8247,4.856292,0.0920973,0.13679621,272.2994,01/22.0/2021,2000,g 10.0,4.0
# From MPEC 2021-AJ0
405P/Lemmon,e,9.3649,3.3127,112.2488,3.610046,0.1436928,0.68922681,4.1213,01/22.0/2021,2000,g 17.5,4.0
# From MPEC 2020-W26
406P/Gibbs,e,1.2135,11.4725,352.3631,3.573263,0.1459173,0.54191189,18.7206,01/22.0/2021,2000,g 17.0,4.0
# From MPEC 2021-AJ0
407P/PANSTARRS-Fuls,e,4.8953,80.8355,92.4223,3.455854,0.1534161,0.38488210,54.6136,01/22.0/2021,2000,g 14.0,4.0
# From MPEC 2020-V78
408P/Novichonok-Gerke,e,19.2914,189.5287,225.5972,4.771324,0.0945683,0.27177978,301.7075,01/22.0/2021,2000,g 10.5,4.0
# From MPEC 2021-AJ0
409P/LONEOS-Hill,e,17.1185,143.6711,15.1372,6.050746,0.0662202,0.71011162,359.5912,01/22.0/2021,2000,g 14.0,4.0
# From MPC107687
1I/`Oumuamua,h,09/09.4886/2017,122.6778,24.5997,241.6845,1.199252,0.255240,2000,23.0,2.0
# From MPEC 2020-K19
2I/Borisov,h,12/08.5549/2019,44.0527,308.1480,209.1251,3.356636,2.006548,2000,11.0,4.0
